TEVEL2-3                
1 63218U 25052J   26068.64540225  .00020365  00000+0  69446-3 0  9991
2 63218  97.3994 324.7775 0004761 105.7353 254.4413 15.30377031 54855
STARLINK-35667          
1 66400U 25257W   26068.70326291  .00036385  00000+0  12346-2 0  9991
2 66400  53.1578 217.0941 0000977  79.8419 280.2692 15.30198713 19739
